{
    "links": {
        "self": "http://www.neowsapp.com/rest/v1/neo/3774002?api_key=iIulBulltgU6a56xZRHN4H3l9WmuAYTsLGpBGhQ2"
    },
    "id": "3774002",
    "neo_reference_id": "3774002",
    "name": "(2017 HT)",
    "designation": "2017 HT",
    "nasa_jpl_url": "http://ssd.jpl.nasa.gov/sbdb.cgi?sstr=3774002",
    "absolute_magnitude_h": 21.6,
    "estimated_diameter": {
        "kilometers": {
            "estimated_diameter_min": 0.1272198785,
            "estimated_diameter_max": 0.2844722965
        },
        "meters": {
            "estimated_diameter_min": 127.2198785394,
            "estimated_diameter_max": 284.4722965033
        },
        "miles": {
            "estimated_diameter_min": 0.0790507431,
            "estimated_diameter_max": 0.1767628354
        },
        "feet": {
            "estimated_diameter_min": 417.3880663071,
            "estimated_diameter_max": 933.3080892598
        }
    },
    "is_potentially_hazardous_asteroid": false,
    "close_approach_data": [
        {
            "close_approach_date": "1936-10-08",
            "close_approach_date_full": "1936-Oct-08 02:18",
            "epoch_date_close_approach": -1048714920000,
            "relative_velocity": {
                "kilometers_per_second": "6.0090535156",
                "kilometers_per_hour": "21632.5926560261",
                "miles_per_hour": "13441.6518089624"
            },
            "miss_distance": {
                "astronomical": "1.8151389759",
                "lunar": "706.0890616251",
                "kilometers": "271540924.548621333",
                "miles": "168727706.5067990754"
            },
            "orbiting_body": "Juptr"
        },
        {
            "close_approach_date": "2017-03-28",
            "close_approach_date_full": "2017-Mar-28 23:06",
            "epoch_date_close_approach": 1490742360000,
            "relative_velocity": {
                "kilometers_per_second": "24.7905503646",
                "kilometers_per_hour": "89245.9813126363",
                "miles_per_hour": "55453.9821106212"
            },
            "miss_distance": {
                "astronomical": "0.1073481287",
                "lunar": "41.7584220643",
                "kilometers": "16059051.402005869",
                "miles": "9978631.8259002322"
            },
            "orbiting_body": "Earth"
        }
    ],
    "orbital_data": {
        "orbit_id": "4",
        "orbit_determination_date": "2017-05-13 06:43:26",
        "first_observation_date": "2017-04-16",
        "last_observation_date": "2017-04-30",
        "data_arc_in_days": 14,
        "observations_used": 40,
        "orbit_uncertainty": "8",
        "minimum_orbit_intersection": ".0996724",
        "jupiter_tisserand_invariant": "3.183",
        "epoch_osculation": "2457862.5",
        "eccentricity": ".7510947634577958",
        "semi_major_axis": "2.206325526541797",
        "inclination": "16.53120086005857",
        "ascending_node_longitude": "204.9176831816579",
        "orbital_period": "1197.023871581856",
        "perihelion_distance": ".5491659770729893",
        "perihelion_argument": "245.8440530220131",
        "aphelion_distance": "3.863485076010606",
        "perihelion_time": "2457794.057371557425",
        "mean_anomaly": "20.58383865541991",
        "mean_motion": ".3007458819716464",
        "equinox": "J2000",
        "orbit_class": {
            "orbit_class_type": "APO",
            "orbit_class_description": "Near-Earth asteroid orbits which cross the Earth’s orbit similar to that of 1862 Apollo",
            "orbit_class_range": "a (semi-major axis) > 1.0 AU; q (perihelion) < 1.017 AU"
        }
    },
    "is_sentry_object": false
}